start=new Date('2021-09-03T00:00:00.000Z').valueOf();
sats=[{"SITE":"AFETR","NORAD_CAT_ID":"45216","TLE_LINE1":"1 45216U 20012AQ  21245.82805885  .00375531  00000-0  12507-1 0  9991","MEAN_ELEMENT_THEORY":"SGP4","ARG_OF_PERICENTER":"134.1388","FILE":"3107724","BSTAR":"0.01250700000000","TLE_LINE2":"2 45216  53.0548 227.6986 0003476 134.1388 225.9897 15.29022630 86458","OBJECT_TYPE":"PAYLOAD","INCLINATION":"53.0548","REF_FRAME":"TEME","MEAN_MOTION_DDOT":"0.0000000000000","OBJECT_NAME":"STARLINK-1254","COUNTRY_CODE":"US","RA_OF_ASC_NODE":"227.6986","PERIOD":"94.178","MEAN_MOTION":"15.29022630","MEAN_MOTION_DOT":"0.00375531","LAUNCH_DATE":"2020-02-17","ECCENTRICITY":"0.00034760","REV_AT_EPOCH":"8645","GP_ID":"183987002","RCS_SIZE":"LARGE","OBJECT_ID":"2020-012AQ","TIME_SYSTEM":"UTC","SEMIMAJOR_AXIS":"6856.870","PERIAPSIS":"476.351","APOAPSIS":"481.118","CLASSIFICATION_TYPE":"U","ELEMENT_SET_NO":"999","CENTER_NAME":"EARTH","DECAY_DATE":null,"EPHEMERIS_TYPE":"0","MEAN_ANOMALY":"225.9897","EPOCH":"2021-09-02T19:52:24.284640"},{"INCLINATION":"53.0538","TLE_LINE2":"2 45217  53.0538 229.3706 0001043  60.3099 299.7993 15.06401070 86577","OBJECT_TYPE":"PAYLOAD","BSTAR":"0.00011766000000","FILE":"3107724","ARG_OF_PERICENTER":"60.3099","REF_FRAME":"TEME","MEAN_MOTION_DDOT":"0.0000000000000","SITE":"AFETR","MEAN_ELEMENT_THEORY":"SGP4","NORAD_CAT_ID":"45217","TLE_LINE1":"1 45217U 20012AR  21245.66730557  .00001472  00000-0  11766-3 0  9995","MEAN_MOTION_DOT":"0.00001472","PERIOD":"95.592","MEAN_MOTION":"15.06401070","OBJECT_NAME":"STARLINK-1271","COUNTRY_CODE":"US","RA_OF_ASC_NODE":"229.3706","LAUNCH_DATE":"2020-02-17","ECCENTRICITY":"0.00010430","REV_AT_EPOCH":"8657","GP_ID":"183986251","RCS_SIZE":"LARGE","OBJECT_ID":"2020-012AR","CENTER_NAME":"EARTH","ELEMENT_SET_NO":"999","MEAN_ANOMALY":"299.7993","EPOCH":"2021-09-02T16:00:55.201248","EPHEMERIS_TYPE":"0","DECAY_DATE":null,"TIME_SYSTEM":"UTC","SEMIMAJOR_AXIS":"6925.345","PERIAPSIS":"546.488","APOAPSIS":"547.933","CLASSIFICATION_TYPE":"U"},{"REF_FRAME":"TEME","MEAN_MOTION_DDOT":"0.0000000000000","INCLINATION":"53.0543","TLE_LINE2":"2 45219  53.0543 209.6765 0001753  59.3384 300.7778 15.06397678 86857","OBJECT_TYPE":"PAYLOAD","FILE":"3107724","BSTAR":"0.00006428100000","ARG_OF_PERICENTER":"59.3384","MEAN_ELEMENT_THEORY":"SGP4","NORAD_CAT_ID":"45219","TLE_LINE1":"1 45219U 20012AT  21245.59914925  .00000676  00000-0  64281-4 0  9998","SITE":"AFETR","MEAN_MOTION_DOT":"0.00000676","PERIOD":"95.592","MEAN_MOTION":"15.06397678","RA_OF_ASC_NODE":"209.6765","OBJECT_NAME":"STARLINK-1187","COUNTRY_CODE":"US","ECCENTRICITY":"0.00017530","GP_ID":"183986501","OBJECT_ID":"2020-012AT","RCS_SIZE":"LARGE","REV_AT_EPOCH":"8685","LAUNCH_DATE":"2020-02-17","EPOCH":"2021-09-02T14:22:46.495200","MEAN_ANOMALY":"300.7778","EPHEMERIS_TYPE":"0","DECAY_DATE":null,"CENTER_NAME":"EARTH","ELEMENT_SET_NO":"999","TIME_SYSTEM":"UTC","PERIAPSIS":"546.007","APOAPSIS":"548.435","CLASSIFICATION_TYPE":"U","SEMIMAJOR_AXIS":"6925.356"},{"PERIOD":"93.354","MEAN_MOTION":"15.42522149","MEAN_MOTION_DOT":"0.00078567","OBJECT_NAME":"STARLINK-1188","COUNTRY_CODE":"US","RA_OF_ASC_NODE":"206.9517","BSTAR":"0.00177470000000","FILE":"3107646","ARG_OF_PERICENTER":"135.0019","OBJECT_TYPE":"PAYLOAD","TLE_LINE2":"2 45220  53.0529 206.9517 0001261 135.0019 225.1088 15.42522149 85923","INCLINATION":"53.0529","REF_FRAME":"TEME","MEAN_MOTION_DDOT":"0.0000000000000","SITE":"AFETR","NORAD_CAT_ID":"45220","TLE_LINE1":"1 45220U 20012AU  21245.51297907  .00078567  00000-0  17747-2 0  9993","MEAN_ELEMENT_THEORY":"SGP4","ELEMENT_SET_NO":"999","CENTER_NAME":"EARTH","DECAY_DATE":null,"EPHEMERIS_TYPE":"0","MEAN_ANOMALY":"225.1088","EPOCH":"2021-09-02T12:18:41.391648","TIME_SYSTEM":"UTC","APOAPSIS":"439.530","PERIAPSIS":"437.811","SEMIMAJOR_AXIS":"6816.805","CLASSIFICATION_TYPE":"U","LAUNCH_DATE":"2020-02-17","ECCENTRICITY":"0.00012610","GP_ID":"183965252","OBJECT_ID":"2020-012AU","RCS_SIZE":"LARGE","REV_AT_EPOCH":"8592"},{"PERIAPSIS":"546.109","SEMIMAJOR_AXIS":"6925.339","APOAPSIS":"548.300","CLASSIFICATION_TYPE":"U","TIME_SYSTEM":"UTC","EPOCH":"2021-09-02T14:28:02.479008","MEAN_ANOMALY":"298.9072","DECAY_DATE":null,"EPHEMERIS_TYPE":"0","CENTER_NAME":"EARTH","ELEMENT_SET_NO":"999","GP_ID":"183987503","REV_AT_EPOCH":"8684","RCS_SIZE":"LARGE","OBJECT_ID":"2020-012AV","ECCENTRICITY":"0.00015820","LAUNCH_DATE":"2020-02-17","RA_OF_ASC_NODE":"209.6602","COUNTRY_CODE":"US","OBJECT_NAME":"STARLINK-1189","MEAN_MOTION_DOT":"0.00001697","PERIOD":"95.592","MEAN_MOTION":"15.06402969","MEAN_ELEMENT_THEORY":"SGP4","TLE_LINE1":"1 45221U 20012AV  21245.60280647  .00001697  00000-0  13281-3 0  9997","NORAD_CAT_ID":"45221","SITE":"AFETR","REF_FRAME":"TEME","MEAN_MOTION_DDOT":"0.0000000000000","INCLINATION":"53.0544","TLE_LINE2":"2 45221  53.0544 209.6602 0001582  61.2076 298.9072 15.06402969 86845","OBJECT_TYPE":"PAYLOAD","BSTAR":"0.00013281000000","FILE":"3107724","ARG_OF_PERICENTER":"61.2076"},{"NORAD_CAT_ID":"45222","TLE_LINE1":"1 45222U 20012AW  21245.61018568 -.00000421  00000-0 -93737-5 0  9992","MEAN_ELEMENT_THEORY":"SGP4","SITE":"AFETR","REF_FRAME":"TEME","MEAN_MOTION_DDOT":"0.0000000000000","FILE":"3107724","ARG_OF_PERICENTER":"39.3308","BSTAR":"-0.00000937370000","TLE_LINE2":"2 45222  53.0545 209.6309 0001672  39.3308 320.7802 15.06394298 86845","OBJECT_TYPE":"PAYLOAD","INCLINATION":"53.0545","RA_OF_ASC_NODE":"209.6309","OBJECT_NAME":"STARLINK-1191","COUNTRY_CODE":"US","PERIOD":"95.593","MEAN_MOTION":"15.06394298","MEAN_MOTION_DOT":"-0.00000421","ECCENTRICITY":"0.00016720","RCS_SIZE":"LARGE","GP_ID":"183985751","REV_AT_EPOCH":"8684","OBJECT_ID":"2020-012AW","LAUNCH_DATE":"2020-02-17","TIME_SYSTEM":"UTC","PERIAPSIS":"546.073","APOAPSIS":"548.389","CLASSIFICATION_TYPE":"U","SEMIMAJOR_AXIS":"6925.366","EPHEMERIS_TYPE":"0","DECAY_DATE":null,"EPOCH":"2021-09-02T14:38:40.042752","MEAN_ANOMALY":"320.7802","ELEMENT_SET_NO":"999","CENTER_NAME":"EARTH"},{"PERIOD":"95.591","MEAN_MOTION":"15.06414549","MEAN_MOTION_DOT":"-0.00005479","COUNTRY_CODE":"US","OBJECT_NAME":"STARLINK-1212","RA_OF_ASC_NODE":"211.0272","ARG_OF_PERICENTER":"45.9425","FILE":"3107538","BSTAR":"-0.00034907000000","INCLINATION":"53.0535","TLE_LINE2":"2 45223  53.0535 211.0272 0000981  45.9425 314.1645 15.06414549 86806","OBJECT_TYPE":"PAYLOAD","REF_FRAME":"TEME","MEAN_MOTION_DDOT":"0.0000000000000","SITE":"AFETR","TLE_LINE1":"1 45223U 20012AX  21245.30055631 -.00005479  00000-0 -34907-3 0  9991","NORAD_CAT_ID":"45223","MEAN_ELEMENT_THEORY":"SGP4","ELEMENT_SET_NO":"999","CENTER_NAME":"EARTH","DECAY_DATE":null,"EPHEMERIS_TYPE":"0","EPOCH":"2021-09-02T07:12:48.065184","MEAN_ANOMALY":"314.1645","PERIAPSIS":"546.490","SEMIMAJOR_AXIS":"6925.304","APOAPSIS":"547.848","CLASSIFICATION_TYPE":"U","TIME_SYSTEM":"UTC","LAUNCH_DATE":"2020-02-17","OBJECT_ID":"2020-012AX","GP_ID":"183959289","RCS_SIZE":"LARGE","REV_AT_EPOCH":"8680","ECCENTRICITY":"0.00009810"},{"APOAPSIS":"370.528","PERIAPSIS":"359.143","CLASSIFICATION_TYPE":"U","SEMIMAJOR_AXIS":"6742.970","TIME_SYSTEM":"UTC","CENTER_NAME":"EARTH","ELEMENT_SET_NO":"999","MEAN_ANOMALY":"80.8917","EPOCH":"2021-09-02T12:27:38.677824","DECAY_DATE":null,"EPHEMERIS_TYPE":"0","LAUNCH_DATE":"2020-02-17","RCS_SIZE":"LARGE","GP_ID":"183965296","REV_AT_EPOCH":"8643","OBJECT_ID":"2020-012AY","ECCENTRICITY":"0.00084420","COUNTRY_CODE":"US","OBJECT_NAME":"STARLINK-1214","RA_OF_ASC_NODE":"170.2038","MEAN_MOTION_DOT":"0.00059518","MEAN_MOTION":"15.67927144","PERIOD":"91.841","SITE":"AFETR","MEAN_ELEMENT_THEORY":"SGP4","TLE_LINE1":"1 45224U 20012AY  21245.51919766  .00059518  00000-0  52903-3 0  9990","NORAD_CAT_ID":"45224","TLE_LINE2":"2 45224  53.0511 170.2038 0008442 279.1143  80.8917 15.67927144 86430","OBJECT_TYPE":"PAYLOAD","INCLINATION":"53.0511","FILE":"3107648","BSTAR":"0.00052903000000","ARG_OF_PERICENTER":"279.1143","REF_FRAME":"TEME","MEAN_MOTION_DDOT":"0.0000000000000"},{"RCS_SIZE":"LARGE","GP_ID":"183958784","REV_AT_EPOCH":"8676","OBJECT_ID":"2020-012AZ","ECCENTRICITY":"0.00012690","LAUNCH_DATE":"2020-02-17","MEAN_ANOMALY":"326.1302","EPOCH":"2021-09-02T09:14:52.994112","DECAY_DATE":null,"EPHEMERIS_TYPE":"0","CENTER_NAME":"EARTH","ELEMENT_SET_NO":"999","PERIAPSIS":"546.328","SEMIMAJOR_AXIS":"6925.342","APOAPSIS":"548.086","CLASSIFICATION_TYPE":"U","TIME_SYSTEM":"UTC","REF_FRAME":"TEME","MEAN_MOTION_DDOT":"0.0000000000000","TLE_LINE2":"2 45225  53.0535 210.6308 0001269  33.9768 326.1302 15.06402070 86764","INCLINATION":"53.0535","OBJECT_TYPE":"PAYLOAD","BSTAR":"-0.00005311500000","FILE":"3107538","ARG_OF_PERICENTER":"33.9768","MEAN_ELEMENT_THEORY":"SGP4","TLE_LINE1":"1 45225U 20012AZ  21245.38533558 -.00001072  00000-0 -53115-4 0  9998","NORAD_CAT_ID":"45225","SITE":"AFETR","MEAN_MOTION_DOT":"-0.00001072","MEAN_MOTION":"15.06402070","PERIOD":"95.592","RA_OF_ASC_NODE":"210.6308","COUNTRY_CODE":"US","OBJECT_NAME":"STARLINK-1215"},{"ECCENTRICITY":"0.00016700","OBJECT_ID":"2020-012BA","GP_ID":"183986252","RCS_SIZE":"LARGE","REV_AT_EPOCH":"8677","LAUNCH_DATE":"2020-02-17","TIME_SYSTEM":"UTC","PERIAPSIS":"546.043","CLASSIFICATION_TYPE":"U","APOAPSIS":"548.356","SEMIMAJOR_AXIS":"6925.335","DECAY_DATE":null,"EPHEMERIS_TYPE":"0","EPOCH":"2021-09-02T17:23:11.819904","MEAN_ANOMALY":"312.9702","ELEMENT_SET_NO":"999","CENTER_NAME":"EARTH","NORAD_CAT_ID":"45226","TLE_LINE1":"1 45226U 20012BA  21245.72444236  .00001899  00000-0  14631-3 0  9995","MEAN_ELEMENT_THEORY":"SGP4","SITE":"AFETR","REF_FRAME":"TEME","MEAN_MOTION_DDOT":"0.0000000000000","ARG_OF_PERICENTER":"47.1427","FILE":"3107724","BSTAR":"0.00014631000000","INCLINATION":"53.0539","TLE_LINE2":"2 45226  53.0539 209.1113 0001670  47.1427 312.9702 15.06404508 86777","OBJECT_TYPE":"PAYLOAD","RA_OF_ASC_NODE":"209.1113","OBJECT_NAME":"STARLINK-1217","COUNTRY_CODE":"US","PERIOD":"95.592","MEAN_MOTION":"15.06404508","MEAN_MOTION_DOT":"0.00001899"}];
